GSAT0101 (PRN E11)      
1 37846U 11060A   22355.95950946 -.00000058  00000+0  00000+0 0  9992
2 37846  57.0544  16.2447 0002386 323.0403  37.0022  1.70475883 69410
GSAT0102 (PRN E12)      
1 37847U 11060B   22355.58997458 -.00000058  00000+0  00000+0 0  9991
2 37847  57.0548  16.2545 0004240 306.0835 234.0286  1.70475197 69414
GSAT0103 (PRN E19)      
1 38857U 12055A   22356.58478063  .00000050  00000+0  00000+0 0  9996
2 38857  55.1965 136.5254 0002569 233.1388 126.7898  1.70473471 63318
GSAT0104 (PRN E20)      
1 38858U 12055B   22354.79486522  .00000065  00000+0  00000+0 0  9993
2 38858  55.1972 136.5762 0001620 156.6809 203.2899  1.70473774 63289
GSAT0201 (PRN E18)      
1 40128U 14050A   22356.85872146 -.00000079  00000+0  00000+0 0  9999
2 40128  50.1504 324.7723 1614368 130.8646 244.3262  1.85519251 54714
GSAT0202 (PRN E14)      
1 40129U 14050B   22357.11905862 -.00000078  00000+0  00000+0 0  9991
2 40129  50.1724 323.8276 1611695 131.6879 243.3074  1.85519639 56878
GSAT0203 (PRN E26)      
1 40544U 15017A   22356.91206092 -.00000061  00000+0  00000+0 0  9994
2 40544  56.8510  16.2263 0005117 260.4285  99.5697  1.70475892 47510
GSAT0204 (PRN E22)      
1 40545U 15017B   22356.57867448 -.00000060  00000+0  00000+0 0  9994
2 40545  56.8557  16.2485 0004756 248.2985 111.7079  1.70475455 10557
GSAT0205 (PRN E24)      
1 40889U 15045A   22356.34664593  .00000024  00000+0  00000+0 0  9996
2 40889  55.5063 256.7740 0006008  18.3715 341.7252  1.70472794 45313
GSAT0206 (PRN E30)      
1 40890U 15045B   22352.46121904  .00000008  00000+0  00000+0 0  9993
2 40890  55.5078 256.8773 0004129   6.0022 354.0587  1.70472951 45273
GSAT0209 (PRN E09)      
1 41174U 15079A   22354.98053676  .00000063  00000+0  00000+0 0  9996
2 41174  55.2124 136.2745 0001747 326.2507  33.7000  1.70474418 43051
GSAT0208 (PRN E08)      
1 41175U 15079B   22353.44032038  .00000074  00000+0  00000+0 0  9998
2 41175  55.2105 136.3153 0001094 335.4785  24.4883  1.70474470 43447
GSAT0211 (PRN E02)      
1 41549U 16030A   22357.07961969  .00000025  00000+0  00000+0 0  9994
2 41549  55.6510 256.7025 0004732 343.0089  17.0544  1.70472977 40983
GSAT0210 (PRN E01)      
1 41550U 16030B   22356.19854292  .00000024  00000+0  00000+0 0  9997
2 41550  55.6515 256.7281 0003381 319.6796  40.3696  1.70474325 40961
GSAT0207 (PRN E07)      
1 41859U 16069A   22357.03429784  .00000046  00000+0  00000+0 0  9993
2 41859  54.8746 136.3528 0001849 288.3932  71.5367  1.70474525 37710
GSAT0212 (PRN E03)      
1 41860U 16069B   22355.71488555  .00000057  00000+0  00000+0 0  9991
2 41860  54.8703 136.3865 0001139  19.1371 340.8242  1.70473205 37941
GSAT0213 (PRN E04)      
1 41861U 16069C   22356.66669243  .00000049  00000+0  00000+0 0  9993
2 41861  54.8744 136.3657 0002301 244.7091 115.2187  1.70473231 37821
GSAT0214 (PRN E05)      
1 41862U 16069D   22356.81386804  .00000048  00000+0  00000+0 0  9999
2 41862  54.8732 136.3559 0001389 235.3648 124.5730  1.70473299 37954
GSAT0215 (PRN E21)      
1 43055U 17079A   22355.54425779  .00000022  00000+0  00000+0 0  9993
2 43055  55.6279 256.5745 0002629 320.6133  39.4381  1.70473719 31274
GSAT0216 (PRN E25)      
1 43056U 17079B   22357.00953918  .00000026  00000+0  00000+0 0  9992
2 43056  55.6272 256.5339 0004000 308.6764  51.3670  1.70473804 31312
GSAT0217 (PRN E27)      
1 43057U 17079C   22351.95053474  .00000007  00000+0  00000+0 0  9998
2 43057  55.6289 256.6728 0004009 326.1054  33.9246  1.70473693 31210
GSAT0218 (PRN E31)      
1 43058U 17079D   22356.86329700  .00000026  00000+0  00000+0 0  9993
2 43058  55.6261 256.5347 0003752 309.6285  50.4169  1.70473581 31329
GSAT0221 (PRN E15)      
1 43564U 18060A   22356.17517465 -.00000058  00000+0  00000+0 0  9993
2 43564  57.2313  16.1097 0005500 273.9102  86.0851  1.70475742 27467
GSAT0222 (PRN E33)      
1 43565U 18060B   22355.22188155 -.00000057  00000+0  00000+0 0  9998
2 43565  57.2331  16.1362 0005040 279.1677  80.8353  1.70475796 27498
GSAT0219 (PRN E36)      
1 43566U 18060C   22357.20216739 -.00000061  00000+0  00000+0 0  9994
2 43566  57.2343  16.0847 0004727 280.2208  79.7810  1.70475730 27508
GSAT0220 (PRN E13)      
1 43567U 18060D   22352.14316629 -.00000059  00000+0  00000+0 0  9999
2 43567  57.2326  16.2230 0004986 275.3211  84.6809  1.70475846 27404
GSAT0223                
1 49809U 21116A   22356.69437664 -.00000060  00000+0  00000+0 0  9999
2 49809  57.2257  15.9964 0003124 231.3917 131.9254  1.70475693  6496
GSAT0224                
1 49810U 21116B   22357.09571024 -.00000061  00000+0  00000+0 0  9996
2 49810  57.2268  15.9835 0002429 236.8127 125.2860  1.70475691  6528
